FENGYUN 3D              
1 43010U 17072A   26196.90101499  .00000029  00000+0  35759-4 0  9995
2 43010  99.0140 171.8448 0001477  12.3012 347.8199 14.19745067449062
NOAA 20 (JPSS-1)        
1 43013U 17073A   26196.75972708  .00000002  00000+0  21826-4 0  9992
2 43013  98.7772 135.9692 0001408 124.1250 236.0060 14.19516491448527
GOES 17                 
1 43226U 18022A   26196.61065404 -.00000193  00000+0  00000+0 0  9992
2 43226   1.0080  85.2498 0000551  79.8372 258.7068  1.00270998 30703
SENTINEL-3B             
1 43437U 18039A   26196.80268664  .00000043  00000+0  35746-4 0  9991
2 43437  98.6236 263.9224 0001154 119.6296 240.5000 14.26736422428204
FENGYUN 2H              
1 43491U 18050A   26196.85785584 -.00000139  00000+0  00000+0 0  9991
2 43491   3.1025  78.7284 0002306 133.9996 108.9194  1.00267068 29723
METOP-C                 
1 43689U 18087A   26196.57486992  .00000053  00000+0  44045-4 0  9996
2 43689  98.6630 255.6574 0002216  93.2289 266.9142 14.21519167398863
GEO-KOMPSAT-2A          
1 43823U 18100A   26195.72708625 -.00000352  00000+0  00000+0 0  9999
2 43823   0.0287 108.8702 0001961 352.7689 220.9550  1.00269956 27901
METEOR-M2 2             
1 44387U 19038A   26196.90502997 -.00000267  00000+0 -95829-4 0  9995
2 44387  98.9154 184.6163 0000690   2.0537 358.0643 14.24372068365386
ARKTIKA-M 1             
1 47719U 21016A   26195.40739072 -.00000301  00000+0  00000+0 0  9996
2 47719  63.2662  53.6722 7297332 270.0591  14.4994  2.00611590 39330
FENGYUN 3E              
1 49008U 21062A   26196.88171315 -.00000325  00000+0 -13227-3 0  9999
2 49008  98.7495 199.9702 0002247  37.9386 322.1949 14.19905471260653
GOES 18                 
1 51850U 22021A   26196.74378094  .00000086  00000+0  00000+0 0  9994
2 51850   0.0207 116.7756 0000422  62.7056 244.8565  1.00271110  6875
NOAA 21 (JPSS-2)        
1 54234U 22150A   26196.79201556  .00000022  00000+0  31171-4 0  9997
2 54234  98.7059 135.1008 0002837 103.4368 256.7125 14.19541131190605
METEOSAT-12 (MTG-I1)    
1 54743U 22170C   26196.77084284 -.00000019  00000+0  00000+0 0  9998
2 54743   0.7259  19.8290 0003828  81.8399 109.1174  1.00267856 13266
TIANMU-1 03             
1 55973U 23039A   26196.82156587  .00009194  00000+0  17744-3 0  9990
2 55973  97.5237  11.9301 0002523  25.2390 334.8983 15.48054731185260
TIANMU-1 04             
1 55974U 23039B   26196.79973794  .00009795  00000+0  18485-3 0  9994
2 55974  97.5177  11.0633 0002957  10.4839 349.6472 15.48681012185274
TIANMU-1 05             
1 55975U 23039C   26196.80373685  .00009273  00000+0  17940-3 0  9996
2 55975  97.5222  11.5156 0002895  44.1898 315.9583 15.47979285185248
TIANMU-1 06             
1 55976U 23039D   26196.80496238  .00009638  00000+0  18255-3 0  9992
2 55976  97.5230  12.1817 0002989  35.3384 324.8064 15.48577864185279
FENGYUN 3G              
1 56232U 23055A   26196.86294838  .00014436  00000+0  22696-3 0  9990
2 56232  49.9905 198.1274 0007032  58.9828 301.1829 15.53807907184462
METEOR-M2 3             
1 57166U 23091A   26196.83572444 -.00000014  00000+0  12639-4 0  9991
2 57166  98.6068 251.2255 0005146  88.8384 271.3385 14.24048956158591
TIANMU-1 07             
1 57399U 23101A   26196.87745747  .00003320  00000+0  11644-3 0  9999
2 57399  97.2576 246.8900 0003712  63.4166 296.7455 15.30120176166039
TIANMU-1 08             
1 57400U 23101B   26196.84402281  .00003530  00000+0  12363-3 0  9994
2 57400  97.2565 246.6240 0004565  44.5405 315.6202 15.30124219166020
TIANMU-1 09             
1 57401U 23101C   26196.82676740  .00003541  00000+0  12386-3 0  9993
2 57401  97.2522 246.0084 0004327  63.5591 296.6093 15.30165108166025
TIANMU-1 10             
1 57402U 23101D   26196.86032023  .00003431  00000+0  12018-3 0  9998
2 57402  97.2602 247.1209 0005601  52.4897 307.6852 15.30138426166027
FENGYUN 3F              
1 57490U 23111A   26196.86493877  .00000017  00000+0  28259-4 0  9996
2 57490  98.6825 266.3376 0001262  76.0956 284.0361 14.19943464152931
ARKTIKA-M 2             
1 58584U 23198A   26196.17500106  .00000129  00000+0  00000+0 0  9997
2 58584  63.2178 151.2342 6910736 267.3397  18.7345  2.00608092 18886
TIANMU-1 11             
1 58645U 23205A   26196.88409947  .00002759  00000+0  10596-3 0  9999
2 58645  97.3440 217.9949 0006806 259.0125 101.0349 15.27267578141905
TIANMU-1 12             
1 58646U 23205B   26196.85657546  .00002871  00000+0  11072-3 0  9992
2 58646  97.3429 217.7145 0005842 231.6118 128.4596 15.27098978141886
TIANMU-1 13             
1 58647U 23205C   26196.89002029  .00002864  00000+0  11050-3 0  9995
2 58647  97.3456 218.0276 0005864 209.4879 150.6030 15.27092203141882
TIANMU-1 14             
1 58648U 23205D   26196.87439369  .00002813  00000+0  10844-3 0  9999
2 58648  97.3393 217.1716 0006488 217.2986 142.7803 15.27135753141889
TIANMU-1 19             
1 58660U 23208A   26196.89944990  .00004430  00000+0  14601-3 0  9991
2 58660  97.4531 313.3573 0004665 195.7325 164.3772 15.31982108141727
TIANMU-1 20             
1 58661U 23208B   26196.84971214  .00004480  00000+0  14225-3 0  9993
2 58661  97.4473 313.9724 0006396 209.4716 150.6167 15.33170585141813
