OBJECT_NAME,OBJECT_ID,EPOCH,MEAN_MOTION,ECCENTRICITY,INCLINATION,RA_OF_ASC_NODE,ARG_OF_PERICENTER,MEAN_ANOMALY,EPHEMERIS_TYPE,CLASSIFICATION_TYPE,NORAD_CAT_ID,ELEMENT_SET_NO,REV_AT_EPOCH,BSTAR,MEAN_MOTION_DOT,MEAN_MOTION_DDOT
FENGYUN 3D,2017-072A,2026-07-15T21:37:27.695136,14.19745067,.0001477,99.0140,171.8448,12.3012,347.8199,0,U,43010,999,44906,.35759E-4,.29E-6,0
NOAA 20 (JPSS-1),2017-073A,2026-07-15T18:14:00.419712,14.19516491,.0001408,98.7772,135.9692,124.1250,236.0060,0,U,43013,999,44852,.21826E-4,.2E-7,0
GOES 17,2018-022A,2026-07-15T14:39:20.509056,1.00270998,.0000551,1.0080,85.2498,79.8372,258.7068,0,U,43226,999,3070,0,-.193E-5,0
SENTINEL-3B,2018-039A,2026-07-15T19:15:52.125696,14.26736422,.0001154,98.6236,263.9224,119.6296,240.5000,0,U,43437,999,42820,.35746E-4,.43E-6,0
FENGYUN 2H,2018-050A,2026-07-15T20:35:18.744576,1.00267068,.0002306,3.1025,78.7284,133.9996,108.9194,0,U,43491,999,2972,0,-.139E-5,0
METOP-C,2018-087A,2026-07-15T13:47:48.761088,14.21519167,.0002216,98.6630,255.6574,93.2289,266.9142,0,U,43689,999,39886,.44045E-4,.53E-6,0
GEO-KOMPSAT-2A,2018-100A,2026-07-14T17:27:00.252000,1.00269956,.00019612,0.0287,108.8702,352.7689,220.9550,0,U,43823,999,2790,0,-.352E-5,0
METEOR-M2 2,2019-038A,2026-07-15T21:43:14.589408,14.24372068,.000069,98.9154,184.6163,2.0537,358.0643,0,U,44387,999,36538,-.95829E-4,-.267E-5,0
ARKTIKA-M 1,2021-016A,2026-07-14T09:46:38.558208,2.00611590,.7297332,63.2662,53.6722,270.0591,14.4994,0,U,47719,999,3933,0,-.301E-5,0
FENGYUN 3E,2021-062A,2026-07-15T21:09:40.016160,14.19905471,.0002247,98.7495,199.9702,37.9386,322.1949,0,U,49008,999,26065,-.13227E-3,-.325E-5,0
GOES 18,2022-021A,2026-07-15T17:51:02.673216,1.00271110,.0000422,0.0207,116.7756,62.7056,244.8565,0,U,51850,999,687,0,.86E-6,0
NOAA 21 (JPSS-2),2022-150A,2026-07-15T19:00:30.144384,14.19541131,.0002837,98.7059,135.1008,103.4368,256.7125,0,U,54234,999,19060,.31171E-4,.22E-6,0
METEOSAT-12 (MTG-I1),2022-170C,2026-07-15T18:30:00.821376,1.00267856,.0003828,0.7259,19.8290,81.8399,109.1174,0,U,54743,999,1326,0,-.19E-6,0
TIANMU-1 03,2023-039A,2026-07-15T19:43:03.291168,15.48054731,.0002523,97.5237,11.9301,25.2390,334.8983,0,U,55973,999,18526,.17744E-3,.9194E-4,0
TIANMU-1 04,2023-039B,2026-07-15T19:11:37.358016,15.48681012,.0002957,97.5177,11.0633,10.4839,349.6472,0,U,55974,999,18527,.18485E-3,.9795E-4,0
TIANMU-1 05,2023-039C,2026-07-15T19:17:22.863840,15.47979285,.0002895,97.5222,11.5156,44.1898,315.9583,0,U,55975,999,18524,.1794E-3,.9273E-4,0
TIANMU-1 06,2023-039D,2026-07-15T19:19:08.749632,15.48577864,.0002989,97.5230,12.1817,35.3384,324.8064,0,U,55976,999,18527,.18255E-3,.9638E-4,0
FENGYUN 3G,2023-055A,2026-07-15T20:42:38.740032,15.53807907,.0007032,49.9905,198.1274,58.9828,301.1829,0,U,56232,999,18446,.22696E-3,.14436E-3,0
METEOR-M2 3,2023-091A,2026-07-15T20:03:26.591616,14.24048956,.0005146,98.6068,251.2255,88.8384,271.3385,0,U,57166,999,15859,.12639E-4,-.14E-6,0
TIANMU-1 07,2023-101A,2026-07-15T21:03:32.325408,15.30120176,.0003712,97.2576,246.8900,63.4166,296.7455,0,U,57399,999,16603,.11644E-3,.332E-4,0
TIANMU-1 08,2023-101B,2026-07-15T20:15:23.570784,15.30124219,.0004565,97.2565,246.6240,44.5405,315.6202,0,U,57400,999,16602,.12363E-3,.353E-4,0
TIANMU-1 09,2023-101C,2026-07-15T19:50:32.703360,15.30165108,.0004327,97.2522,246.0084,63.5591,296.6093,0,U,57401,999,16602,.12386E-3,.3541E-4,0
TIANMU-1 10,2023-101D,2026-07-15T20:38:51.667872,15.30138426,.0005601,97.2602,247.1209,52.4897,307.6852,0,U,57402,999,16602,.12018E-3,.3431E-4,0
FENGYUN 3F,2023-111A,2026-07-15T20:45:30.709728,14.19943464,.0001262,98.6825,266.3376,76.0956,284.0361,0,U,57490,999,15293,.28259E-4,.17E-6,0
ARKTIKA-M 2,2023-198A,2026-07-15T04:12:00.091584,2.00608092,.6910736,63.2178,151.2342,267.3397,18.7345,0,U,58584,999,1888,0,.129E-5,0
TIANMU-1 11,2023-205A,2026-07-15T21:13:06.194208,15.27267578,.0006806,97.3440,217.9949,259.0125,101.0349,0,U,58645,999,14190,.10596E-3,.2759E-4,0
TIANMU-1 12,2023-205B,2026-07-15T20:33:28.119744,15.27098978,.0005842,97.3429,217.7145,231.6118,128.4596,0,U,58646,999,14188,.11072E-3,.2871E-4,0
TIANMU-1 13,2023-205C,2026-07-15T21:21:37.753056,15.27092203,.0005864,97.3456,218.0276,209.4879,150.6030,0,U,58647,999,14188,.1105E-3,.2864E-4,0
TIANMU-1 14,2023-205D,2026-07-15T20:59:07.614816,15.27135753,.0006488,97.3393,217.1716,217.2986,142.7803,0,U,58648,999,14188,.10844E-3,.2813E-4,0
TIANMU-1 19,2023-208A,2026-07-15T21:35:12.471360,15.31982108,.0004665,97.4531,313.3573,195.7325,164.3772,0,U,58660,999,14172,.14601E-3,.443E-4,0
TIANMU-1 20,2023-208B,2026-07-15T20:23:35.128896,15.33170585,.0006396,97.4473,313.9724,209.4716,150.6167,0,U,58661,999,14181,.14225E-3,.448E-4,0
